[{"OBJECT_NAME":"VSP RF A1","OBJECT_ID":"2024-043AP","EPOCH":"2026-03-07T00:44:15.345024","MEAN_MOTION":15.26179596,"ECCENTRICITY":0.00094313,"INCLINATION":97.5247,"RA_OF_ASC_NODE":201.5379,"ARG_OF_PERICENTER":234.6315,"MEAN_ANOMALY":125.4042,"EPHEMERIS_TYPE":0,"CLASSIFICATION_TYPE":"U","NORAD_CAT_ID":59135,"ELEMENT_SET_NO":999,"REV_AT_EPOCH":11140,"BSTAR":2.5198753e-5,"MEAN_MOTION_DOT":5.77e-6,"MEAN_MOTION_DDOT":0},{"OBJECT_NAME":"AEROCUBE 18B","OBJECT_ID":"2025-052N","EPOCH":"2026-03-09T16:50:02.994720","MEAN_MOTION":15.23094619,"ECCENTRICITY":0.00062515,"INCLINATION":97.4088,"RA_OF_ASC_NODE":323.4677,"ARG_OF_PERICENTER":110.4629,"MEAN_ANOMALY":249.728,"EPHEMERIS_TYPE":0,"CLASSIFICATION_TYPE":"U","NORAD_CAT_ID":63222,"ELEMENT_SET_NO":999,"REV_AT_EPOCH":5474,"BSTAR":0.00034527206,"MEAN_MOTION_DOT":8.078e-5,"MEAN_MOTION_DDOT":0}]
