VSP RF A1               
1 59135U 24043AP  26066.03073316  .00000577  00000+0  25199-4 0  9997
2 59135  97.5247 201.5379 0009431 234.6315 125.4042 15.26179596111403
AEROCUBE 18B            
1 63222U 25052N   26068.70142355  .00008078  00000+0  34527-3 0  9994
2 63222  97.4088 323.4677 0006252 110.4629 249.7280 15.23094619 54745
